GOES 1 (SMS-C)          
1 08366U 75100A   24157.60565535 -.00000036  00000+0  00000+0 0  9998
2 08366   6.4944 286.6900 0001469 288.1754 144.0966  1.00314319177634
GOES 2                  
1 10061U 77048A   24157.19610713 -.00000260  00000+0  00000+0 0  9998
2 10061   8.1839 299.8388 0011219  45.9916 299.8658  0.99400012 38894
GOES 3                  
1 10953U 78062A   24157.43581580 -.00000027  00000+0  00000+0 0  9992
2 10953   8.5813 304.9424 0002067 165.4103  27.5294  0.99357205121166
GOES 4                  
1 11964U 80074A   24157.54297824 -.00000175  00000+0  00000+0 0  9992
2 11964   9.6013 308.7693 0033057  94.2636 222.3025  0.99234186120074
GOES 5                  
1 12472U 81049A   24157.57959856  .00000087  00000+0  00000+0 0  9994
2 12472  10.6906 320.7975 0000950 201.4619 160.6879  1.00292638115410
GOES 6                  
1 14050U 83041A   24157.59278653  .00000017  00000+0  00000+0 0  9996
2 14050  11.3790 326.2734 0003669 167.6576 207.5403  1.00309921208581
GOES 7                  
1 17561U 87022A   24156.77496622 -.00000081  00000+0  00000+0 0  9998
2 17561  13.6053 342.9501 0004218  83.7924 108.4595  0.99907547119566
GOES 8                  
1 23051U 94022A   24157.14521498  .00000038  00000+0  00000+0 0  9990
2 23051  13.7916  19.1282 0006675  58.0071 293.8481  0.98902927116782
GOES 9                  
1 23581U 95025A   24156.64354559  .00000030  00000+0  00000+0 0  9990
2 23581  13.2989  19.7474 0006910 121.5488  44.6440  0.98797989105420
GOES 10                 
1 24786U 97019A   24157.36670749 -.00000004  00000+0  00000+0 0  9997
2 24786  12.2492  26.1864 0028025 216.4159 352.3891  0.99124300 98715
GOES 11                 
1 26352U 00022A   24157.45423833  .00000047  00000+0  00000+0 0  9992
2 26352  10.2206  53.3301 0000769 239.2462 349.3476  0.99041345 45129
GOES 12                 
1 26871U 01031A   24157.34216167 -.00000053  00000+0  00000+0 0  9995
2 26871  10.8252  43.1966 0005766 319.6498  37.3525  0.99138546 83402
EWS-G1 (GOES 13)        
1 29155U 06018A   24157.47487243 -.00000092  00000+0  00000+0 0  9995
2 29155   2.5967  85.4232 0082479 254.9206   7.7755  0.99104791 35914
GOES 14                 
1 35491U 09033A   24157.61029008 -.00000063  00000+0  00000+0 0  9990
2 35491   0.3137 105.3505 0003525 344.1045 276.1763  1.00272277 54675
EWS-G2 (GOES 15)        
1 36411U 10008A   24157.43085552  .00000041  00000+0  00000+0 0  9998
2 36411   0.2710  89.8011 0001727 109.8864 271.2309  1.00266886 52207
GOES 16                 
1 41866U 16071A   24155.61453774 -.00000244  00000+0  00000+0 0  9993
2 41866   0.0571 260.4128 0000209 153.8546 344.3152  1.00271440 27646
GOES 17                 
1 43226U 18022A   24157.57845656 -.00000087  00000+0  00000+0 0  9999
2 43226   0.0178 157.2061 0000406 305.2616 255.5435  1.00271545 22985
GOES 18                 
1 51850U 22021A   24156.96194976  .00000101  00000+0  00000+0 0  9995
2 51850   0.0315 144.2554 0000112 222.2363  96.6739  1.00270984  8334
